      2.10          N: GNSS NAV DATA                        RINEX VERSION / TYPE
fic2rin                                 01/25/2022 00:17:35 PGM / RUN BY / DATE
                                                            END OF HEADER
18 22  1 24 14  0  0.0 2.545267343521e-04-7.617018127348e-12 0.000000000000e+00
    1.680000000000e+02 1.887500000000e+01 4.183388540639e-09 1.456670738812e+00
    9.685754776001e-07 2.091697184369e-03 9.009614586830e-06 5.153627573013e+03
    1.368000000000e+05-7.078051567078e-08-1.526513345957e+00 6.332993507385e-08
    9.702906901476e-01 2.110625000000e+02 3.111821818635e+00-7.945330954926e-09
    2.678683006471e-10 1.000000000000e+00 2.194000000000e+03 0.000000000000e+00
    2.400000000000e+00 0.000000000000e+00-8.381903171539e-09 1.680000000000e+02
    1.296000000000e+05 4.000000000000e+00
20 22  1 24 14  0  0.0 5.170246586204e-04-2.273736754432e-13 0.000000000000e+00
    9.700000000000e+01-4.812500000000e+00 5.157714839526e-09 2.314794302074e+00
   -2.514570951462e-07 5.264418665320e-03 5.539506673813e-06 5.153732481003e+03
    1.368000000000e+05-1.154839992523e-07-6.528555939646e-01 1.378357410431e-07
    9.415858104513e-01 2.592500000000e+02 3.112366468888e+00-8.517497645108e-09
    2.507247294057e-10 1.000000000000e+00 2.194000000000e+03 0.000000000000e+00
    2.400000000000e+00 0.000000000000e+00-8.381903171539e-09 9.700000000000e+01
    1.296000000000e+05 4.000000000000e+00
24 22  1 24 14  0  0.0 2.768570557237e-04-6.821210263297e-13 0.000000000000e+00
    9.000000000000e+01 3.718750000000e+01 5.182358723185e-09 1.571083798975e+00
    1.965090632439e-06 1.230602269061e-02 1.031532883644e-05 5.153701669693e+03
    1.368000000000e+05-2.905726432800e-07 1.518590389374e+00 6.519258022308e-08
    9.341249180066e-01 1.698750000000e+02 8.028906347491e-01-8.397492646418e-09
   -1.178620522847e-11 1.000000000000e+00 2.194000000000e+03 0.000000000000e+00
    2.400000000000e+00 0.000000000000e+00 2.328306436539e-09 9.000000000000e+01
    1.296000000000e+05 4.000000000000e+00
25 22  1 24 14  0  0.0 2.755569294095e-04 5.456968210638e-12 0.000000000000e+00
    8.200000000000e+01 3.537500000000e+01 4.947348934084e-09-2.934913667620e-01
    1.935288310051e-06 1.041466672905e-02 4.788860678673e-06 5.153717060089e+03
    1.368000000000e+05 3.352761268616e-08 2.637201684184e+00 1.415610313416e-07
    9.581184597882e-01 2.846250000000e+02 9.728850510132e-01-8.568928358832e-09
   -8.893227581482e-11 1.000000000000e+00 2.194000000000e+03 0.000000000000e+00
    2.400000000000e+00 0.000000000000e+00 5.587935447693e-09 8.200000000000e+01
    1.296000000000e+05 4.000000000000e+00
14 22  1 24 14  0  0.0-7.503572851419e-05-5.115907697473e-12 0.000000000000e+00
    8.800000000000e+01 3.696875000000e+01 4.895918220360e-09-1.125161308628e-02
    1.715496182442e-06 1.339513342828e-03 5.386769771576e-06 5.153644006729e+03
    1.368000000000e+05 2.421438694000e-08 2.682700493312e+00 4.284083843231e-08
    9.541352498487e-01 2.730625000000e+02 3.036347016384e+00-8.398921277355e-09
   -1.596495071856e-10 1.000000000000e+00 2.194000000000e+03 0.000000000000e+00
    2.400000000000e+00 0.000000000000e+00-7.450580596924e-09 8.560000000000e+02
    1.296000000000e+05 4.000000000000e+00
23 22  1 24 14  0  0.0 7.999595254660e-06-3.751665644813e-12 0.000000000000e+00
    2.020000000000e+02-1.646875000000e+01 4.723768192477e-09 5.910160893695e-01
   -8.307397365570e-07 1.969836535864e-03 5.230307579041e-06 5.153695009232e+03
    1.368000000000e+05 5.029141902924e-08-5.266811493553e-01-1.862645149231e-09
    9.673448734540e-01 2.827500000000e+02 2.930496513754e+00-8.269987335310e-09
    2.032227507576e-10 1.000000000000e+00 2.194000000000e+03 0.000000000000e+00
    2.400000000000e+00 0.000000000000e+00-8.381903171539e-09 4.580000000000e+02
    1.296000000000e+05 4.000000000000e+00
28 22  1 24 14  0  0.0 4.153586924076e-04-8.071765478235e-12 0.000000000000e+00
    8.000000000000e+01 3.865625000000e+01 4.363396038674e-09-2.345652737623e+00
    2.086162567139e-06 1.694572728593e-02 5.215406417847e-06 5.153700872421e+03
    1.368000000000e+05 1.862645149231e-07 2.735729989244e+00 2.197921276093e-07
    9.698537691824e-01 2.823125000000e+02-1.291256417693e+00-7.881042562771e-09
   -1.321483616526e-10 1.000000000000e+00 2.194000000000e+03 0.000000000000e+00
    3.400000000000e+00 6.300000000000e+01-1.117587089539e-08 8.000000000000e+01
    1.296000000000e+05 4.000000000000e+00
 2 22  1 24 16  0  0.0-6.494116969407e-04-9.094947017729e-13 0.000000000000e+00
    3.000000000000e+01-7.531250000000e+00 4.091956160685e-09 2.476232160232e+00
   -2.831220626831e-07 2.068231184967e-02 8.491799235344e-06 5.153681680679e+03
    1.440000000000e+05 2.421438694000e-07-1.623562045430e+00-4.842877388000e-08
    9.648539979504e-01 2.126250000000e+02-1.452610539882e+00-7.589244693933e-09
    1.085759511956e-10 1.000000000000e+00 2.194000000000e+03 0.000000000000e+00
    2.400000000000e+00 0.000000000000e+00-1.769512891769e-08 3.000000000000e+01
    1.368000000000e+05 4.000000000000e+00
 1 22  1 24 16  0  0.0 4.490115679801e-04-9.663381206337e-12 0.000000000000e+00
    3.000000000000e+01 1.121875000000e+01 3.723012221260e-09 2.319381046182e+00
    5.457550287247e-07 1.128678966779e-02 1.012906432152e-05 5.153673761368e+03
    1.440000000000e+05-4.097819328308e-08-1.534717210606e+00-1.974403858185e-07
    9.865031564562e-01 1.963437500000e+02 8.814210559363e-01-7.671748130532e-09
    3.360854278785e-10 1.000000000000e+00 2.194000000000e+03 0.000000000000e+00
    2.400000000000e+00 0.000000000000e+00 5.122274160385e-09 3.000000000000e+01
    1.368000000000e+05 4.000000000000e+00
 5 22  1 24 16  0  0.0-6.901845335960e-05-1.364242052659e-12 0.000000000000e+00
    2.700000000000e+01-1.062500000000e+01 4.723053877009e-09-1.316849089856e+00
   -3.427267074585e-07 5.878407042474e-03 5.427747964859e-06 5.153652820587e+03
    1.440000000000e+05 6.332993507385e-08-5.393055647672e-01 6.519258022308e-08
    9.594541142350e-01 2.692187500000e+02 1.012760043167e+00-8.289273852957e-09
    2.853690296227e-10 1.000000000000e+00 2.194000000000e+03 0.000000000000e+00
    2.400000000000e+00 0.000000000000e+00-1.117587089539e-08 2.700000000000e+01
    1.368000000000e+05 4.000000000000e+00
 6 22  1 24 16  0  0.0 1.803906634450e-04 1.125499693444e-11 0.000000000000e+00
    1.600000000000e+01 1.750000000000e+00 3.748727578122e-09 2.676820512067e+00
    2.253800630569e-07 2.655465039425e-03 9.303912520409e-06 5.153660322189e+03
    1.440000000000e+05 3.166496753693e-08-1.542986619838e+00 5.587935447693e-09
    9.858854012614e-01 2.130312500000e+02-9.889408973122e-01-7.721750213319e-09
    2.457245211269e-10 1.000000000000e+00 2.194000000000e+03 0.000000000000e+00
    2.400000000000e+00 0.000000000000e+00 3.725290298462e-09 1.600000000000e+01
    1.368000000000e+05 4.000000000000e+00
 3 22  1 24 16  0  0.0-9.138649329543e-05-1.568878360558e-11 0.000000000000e+00
    3.800000000000e+01-1.528125000000e+01 4.552332480063e-09 1.152983061252e+00
   -9.220093488693e-07 3.861098666675e-03 5.396082997322e-06 5.153688688278e+03
    1.440000000000e+05-3.166496753693e-08-4.992053607642e-01 2.793967723846e-08
    9.724801269922e-01 2.791562500000e+02 9.724183143146e-01-8.257486814613e-09
    2.232235838726e-10 1.000000000000e+00 2.194000000000e+03 0.000000000000e+00
    2.400000000000e+00 0.000000000000e+00 1.862645149231e-09 3.800000000000e+01
    1.368000000000e+05 4.000000000000e+00
 4 22  1 24 16  0  0.0-1.933714374900e-04 1.932676241267e-12 0.000000000000e+00
    5.200000000000e+01-5.006250000000e+01 4.655908222980e-09-2.154121095104e+00
   -2.708286046982e-06 1.660338020884e-03 9.642913937569e-06 5.153659708023e+03
    1.440000000000e+05 3.539025783539e-08 5.816630733103e-01-2.607703208923e-08
    9.612089312845e-01 1.969375000000e+02-3.092736032001e+00-8.060335745337e-09
   -1.971510692762e-10 1.000000000000e+00 2.194000000000e+03 0.000000000000e+00
    2.400000000000e+00 0.000000000000e+00-4.190951585770e-09 3.080000000000e+02
    1.368000000000e+05 4.000000000000e+00
30 22  1 24 16  0  0.0-5.089221522212e-04-2.501110429876e-12 0.000000000000e+00
    3.000000000000e+00 4.121875000000e+01 5.148785896171e-09 1.675544652315e+00
    2.318993210793e-06 5.432617035694e-03 1.084990799427e-05 5.153595434189e+03
    1.440000000000e+05-3.539025783539e-08 1.614412585644e+00 1.192092895508e-07
    9.358100855263e-01 1.587500000000e+02-2.750452453008e+00-8.393563911342e-09
    7.250302004181e-11 1.000000000000e+00 2.194000000000e+03 0.000000000000e+00
    2.400000000000e+00 0.000000000000e+00 3.725290298462e-09 3.000000000000e+00
    1.368000000000e+05 4.000000000000e+00
15 22  1 24 16  0  0.0-8.909683674574e-05 2.842170943040e-12 0.000000000000e+00
    2.100000000000e+01-6.175000000000e+01 5.362009063486e-09-2.684301256310e+00
   -3.430992364883e-06 1.392955670599e-02 7.752329111099e-06 5.153730985641e+03
    1.440000000000e+05 2.235174179077e-07 4.234425362756e-01-1.471489667892e-07
    9.301044782649e-01 2.100000000000e+02 1.071695520786e+00-8.312131947945e-09
   -4.893060958486e-11 1.000000000000e+00 2.194000000000e+03 0.000000000000e+00
    2.400000000000e+00 0.000000000000e+00-1.071020960808e-08 2.100000000000e+01
    1.368000000000e+05 4.000000000000e+00
19 22  1 24 16  0  0.0 1.098131760955e-04 5.002220859751e-12 0.000000000000e+00
    1.400000000000e+01-3.862500000000e+01 4.087670267874e-09 6.321190461813e-01
   -2.181157469749e-06 8.945567300543e-03 8.057802915573e-06 5.153682083130e+03
    1.440000000000e+05 6.891787052155e-08-2.487766972314e+00-1.695007085800e-07
    9.789577731778e-01 2.401875000000e+02 1.998875453186e+00-8.109266354922e-09
   -3.796586714504e-10 1.000000000000e+00 2.194000000000e+03 0.000000000000e+00
    2.400000000000e+00 0.000000000000e+00-1.583248376846e-08 1.400000000000e+01
    1.368000000000e+05 4.000000000000e+00
